
# Worst residual: 12.48 km
# MJD 61012.000000 (2025 Dec  3  0:00)
XL8D89E
1 89996U 00000AAD 25337.49919926  .00000000  00000-0  00000-0 2 25484
2 89996 036.7628 230.4495 1011798 151.9871 029.5625 00.01022430    02

# Worst residual: 12.32 km
# MJD 61013.000000 (2025 Dec  4  0:00)
XL8D89E
1 89996U 00000AAD 25338.49919926  .00000000  00000-0  00000-0 2 25485
2 89996 036.5402 230.3845 1004692 152.3611 033.0169 00.01022959    09

# Worst residual: 12.20 km
# MJD 61014.000000 (2025 Dec  5  0:00)
XL8D89E
1 89996U 00000AAD 25339.49919926  .00000000  00000-0  00000-0 2 25486
2 89996 036.3581 230.3064 0984675 151.9308 037.2662 00.01026526    01

# Worst residual: 12.45 km
# MJD 61015.000000 (2025 Dec  6  0:00)
XL8D89E
1 89996U 00000AAD 25340.49919926  .00000000  00000-0  00000-0 2 25488
2 89996 036.2117 230.2229 0953775 150.3518 042.6423 00.01033469    09

# Worst residual: 13.16 km
# MJD 61016.000000 (2025 Dec  7  0:00)
XL8D89E
1 89996U 00000AAD 25341.49919926  .00000000  00000-0  00000-0 2 25489
2 89996 036.0903 230.1356 0915967 147.2959 049.4807 00.01043962    05

# Worst residual: 14.30 km
# MJD 61017.000000 (2025 Dec  8  0:00)
XL8D89E
1 89996U 00000AAD 25342.49919926  .00000000  00000-0  00000-0 2 25480
2 89996 035.9810 230.0398 0878019 142.5098 058.0567 00.01057916    06

# Worst residual: 15.71 km
# MJD 61018.000000 (2025 Dec  9  0:00)
XL8D89E
1 89996U 00000AAD 25343.49919926  .00000000  00000-0  00000-0 2 25481
2 89996 035.8725 229.9264 0849142 135.9347 068.4600 00.01075003    07

# Worst residual: 17.20 km
# MJD 61019.000000 (2025 Dec 10  0:00)
XL8D89E
1 89996U 00000AAD 25344.49919926  .00000000  00000-0  00000-0 2 25482
2 89996 035.7566 229.7843 0839337 127.8757 080.4194 00.01094739    09

# Worst residual: 18.42 km
# MJD 61020.000000 (2025 Dec 11  0:00)
XL8D89E
1 89996U 00000AAD 25345.49919926  .00000000  00000-0  00000-0 2 25483
2 89996 035.6291 229.6022 0856596 119.0797 093.2202 00.01116573    07

# Worst residual: 20.04 km
# MJD 61021.000000 (2025 Dec 12  0:00)
XL8D89E
1 89996U 00000AAD 25346.49919926  .00000000  00000-0  00000-0 2 25484
2 89996 035.4888 229.3701 0904163 110.5307 105.9062 00.01139937    09

# Worst residual: 21.18 km
# MJD 61022.000000 (2025 Dec 13  0:00)
XL8D89E
1 89996U 00000AAD 25347.49919926  .00000000  00000-0  00000-0 2 25485
2 89996 035.3368 229.0796 0979831 103.0407 117.6874 00.01164286    00

# Worst residual: 22.34 km
# MJD 61023.000000 (2025 Dec 14  0:00)
XL8D89E
1 89996U 00000AAD 25348.49919926  .00000000  00000-0  00000-0 2 25486
2 89996 035.1761 228.7239 1077711 096.9988 128.1906 00.01189099    06

# Worst residual: 23.27 km
# MJD 61024.000000 (2025 Dec 15  0:00)
XL8D89E
1 89996U 00000AAD 25349.49919926  .00000000  00000-0  00000-0 2 25487
2 89996 035.0109 228.2983 1190656 092.4219 137.4084 00.01213885    05

# Worst residual: 23.79 km
# MJD 61025.000000 (2025 Dec 16  0:00)
XL8D89E
1 89996U 00000AAD 25350.49919926  .00000000  00000-0  00000-0 2 25489
2 89996 034.8491 227.8105 1314632 089.0336 145.6173 00.01238760    00

# Worst residual: 24.06 km
# MJD 61026.000000 (2025 Dec 17  0:00)
XL8D89E
1 89996U 00000AAD 25351.49919926  .00000000  00000-0  00000-0 2 25480
2 89996 034.6873 227.2300 1435440 086.8985 152.7587 00.01261542    01

# Worst residual: 24.67 km
# MJD 61027.000000 (2025 Dec 18  0:00)
XL8D89E
1 89996U 00000AAD 25352.49919926  .00000000  00000-0  00000-0 2 25481
2 89996 034.5405 226.5906 1556513 085.4986 159.3318 00.01283552    06

# Worst residual: 24.46 km
# MJD 61028.000000 (2025 Dec 19  0:00)
XL8D89E
1 89996U 00000AAD 25353.49919926  .00000000  00000-0  00000-0 2 25482
2 89996 034.4115 225.8895 1671035 084.7447 165.4133 00.01303828    05

# Worst residual: 24.12 km
# MJD 61029.000000 (2025 Dec 20  0:00)
XL8D89E
1 89996U 00000AAD 25354.49919926  .00000000  00000-0  00000-0 2 25483
2 89996 034.3059 225.1381 1775745 084.4793 171.1380 00.01322028    09

# Worst residual: 23.66 km
# MJD 61030.000000 (2025 Dec 21  0:00)
XL8D89E
1 89996U 00000AAD 25355.49919926  .00000000  00000-0  00000-0 2 25484
2 89996 034.2282 224.3523 1868072 084.5705 176.6102 00.01337864    01

# Worst residual: 22.70 km
# MJD 61031.000000 (2025 Dec 22  0:00)
XL8D89E
1 89996U 00000AAD 25356.49919926  .00000000  00000-0  00000-0 2 25485
2 89996 034.1813 223.5522 1946127 084.9047 181.9108 00.01351117    03

# Worst residual: 21.72 km
# MJD 61032.000000 (2025 Dec 23  0:00)
XL8D89E
1 89996U 00000AAD 25357.49919926  .00000000  00000-0  00000-0 2 25486
2 89996 034.1661 222.7611 2008718 085.3815 187.1053 00.01361646    03

# Worst residual: 20.03 km
# MJD 61033.000000 (2025 Dec 24  0:00)
XL8D89E
1 89996U 00000AAD 25358.49919926  .00000000  00000-0  00000-0 2 25487
2 89996 034.1810 222.0040 2055330 085.9100 192.2486 00.01369392    06

# Worst residual: 18.32 km
# MJD 61034.000000 (2025 Dec 25  0:00)
XL8D89E
1 89996U 00000AAD 25359.49919926  .00000000  00000-0  00000-0 2 25488
2 89996 034.2218 221.3064 2086164 086.4064 197.3904 00.01374374    08

# Worst residual: 16.36 km
# MJD 61035.000000 (2025 Dec 26  0:00)
XL8D89E
1 89996U 00000AAD 25360.49919926  .00000000  00000-0  00000-0 2 25480
2 89996 034.2817 220.6920 2102123 086.7933 202.5790 00.01376696    09

# Worst residual: 14.08 km
# MJD 61036.000000 (2025 Dec 27  0:00)
XL8D89E
1 89996U 00000AAD 25361.49919926  .00000000  00000-0  00000-0 2 25481
2 89996 034.3516 220.1815 2104854 086.9989 207.8636 00.01376531    05

# Worst residual: 11.72 km
# MJD 61037.000000 (2025 Dec 28  0:00)
XL8D89E
1 89996U 00000AAD 25362.49919926  .00000000  00000-0  00000-0 2 25482
2 89996 034.4207 219.7905 2096802 086.9584 213.2961 00.01374126    01

# Worst residual: 9.02 km
# MJD 61038.000000 (2025 Dec 29  0:00)
XL8D89E
1 89996U 00000AAD 25363.49919926  .00000000  00000-0  00000-0 2 25483
2 89996 034.4773 219.5305 2081945 086.6130 218.9382 00.01369874    00

# Worst residual: 7.03 km
# MJD 61039.000000 (2025 Dec 30  0:00)
XL8D89E
1 89996U 00000AAD 25364.49919926  .00000000  00000-0  00000-0 2 25484
2 89996 034.5125 219.3948 2062227 085.9410 224.8112 00.01363880    06
